{"type":"FeatureCollection", "features": [
{"type":"Feature","geometry":{"type":"Polygon","coordinates":[[[50.79877090500008,11.983558655000138],[50.787746429000094,11.973269462000133],[50.726474762000066,11.954015731000027],[50.67337799000012,11.933105468000178],[50.63838195800014,11.940841674000069],[50.62329101600011,11.927124023000033],[50.58152771000016,11.912115097000083],[50.55247116100003,11.884417534000136],[50.53930664100005,11.860102653000126],[50.521911621000186,11.799682617000144],[50.52130127000004,11.784301758000026],[50.49286270100009,11.731554985000173],[50.47192382800017,11.706481934000124],[50.431526184,11.670402527000135],[50.38769531200006,11.656311035000044],[50.356689453000115,11.63671875000017],[50.28519621600009,11.602591793000101],[50.26052475000017,11.580614089999983],[50.234680176000154,11.574707031],[50.21569824200009,11.561661720000075],[50.16717910800014,11.55397605900015],[50.137527465000176,11.537040711000088],[50.122089340000116,11.537475586000141],[50.08929443400018,11.51092529300007],[50.064014435000104,11.503651619000095],[49.97985076900005,11.501755715000058],[49.95491790700015,11.509157181000148],[49.92730389000019,11.504692923999983],[49.86151123000013,11.468078612999989],[49.82406997700008,11.457414627000162],[49.762065887000176,11.456341744000099],[49.72430801400003,11.46281719200016],[49.69215011600011,11.47732925400004],[49.655773163,11.458969117000152],[49.575820923000094,11.451201439000158],[49.546916962000125,11.439490319000186],[49.528503418000184,11.402709961000028],[49.50952148400006,11.380920410000044],[49.47430419900002,11.37329101600011],[49.42202758800016,11.333540917],[49.386150361000034,11.32778835300013],[49.29604589400009,11.33283551],[49.272933960000046,11.312799454000071],[49.239685059000124,11.298522949000017],[49.21611023000008,11.296207428],[49.14391708400012,11.278668404000143],[49.051231384000175,11.263841629000183],[48.955318451000096,11.238403320000145],[48.92457580500019,11.237659454000038],[48.87960434000007,11.246534347000079],[48.77373886100003,11.290660858000138],[48.70193862999997,11.307486534000134],[48.66205215500014,11.322547912000061],[48.60409164400005,11.306978226000183],[48.54327392500011,11.310464859000092],[48.517433167000036,11.305782318000183],[48.462097168000184,11.280273437000119],[48.40407943700012,11.280787468000142],[48.36010360700004,11.26981353800005],[48.31732177700019,11.230102539000143],[48.28814697300015,11.213439941000104],[48.24168658400009,11.204522244000088],[48.20796966600011,11.178616524000176],[48.18530273400012,11.15252685500019],[48.153503418000184,11.12908935500002],[48.10766220100004,11.12390613499997],[48.09273529000018,11.128661156000078],[48.024597168000014,11.114989281000135],[47.971763611000085,11.112416267000015],[47.91350936900011,11.121755600000142],[47.86422348000002,11.110217094000063],[47.802223206000065,11.122039795000092],[47.72045517000015,11.094652176000068],[47.67439270099999,11.09022521900016],[47.576889038000104,11.150499343000149],[47.55742645300012,11.169445991000146],[47.50634384200009,11.181048393000026],[47.422088623000036,11.175392151000096],[47.33410644500003,11.145080566000047],[47.27609252900004,11.118436814000177],[47.256336212000065,11.114375113999984],[47.21807861300016,11.086303711000028],[47.15051269500009,11.0625],[47.14227294900013,11.041076660000101],[47.112651825000114,11.014140129000054],[47.1074829100001,10.992492676000154],[47.08312988300008,10.97570800800014],[47.05029296900011,10.96350097700008],[47.017263222000054,10.960687623000183],[46.98477554300007,10.926614761000053],[46.95582199100005,10.912796021000133],[46.93766403199999,10.914012909000064],[46.921325684000124,10.895476341000062],[46.900886534999984,10.89207267800009],[46.870510101000036,10.858465195000178],[46.84570312500006,10.850190163000093],[46.83445358200015,10.83537483200007],[46.781257903000096,10.807851520000042],[46.77111816400003,10.797912597999982],[46.71691131600005,10.77678585100017],[46.66678619400011,10.745031357000187],[46.61024856600005,10.72722339600017],[46.58839035000017,10.727458954000099],[46.51883316100009,10.710417747000065],[46.449707031000116,10.680725098000096],[46.39807128900003,10.681518555000139],[46.34472274800015,10.689684867999972],[46.32053375200013,10.710558891000062],[46.29197311400014,10.74701118500002],[46.23623275699998,10.78039169300007],[46.20611572300015,10.78070068400018],[46.09693908700018,10.762431145000107],[46.04803848200004,10.768044472000156],[46.02306366000005,10.775552750000031],[45.974670410000044,10.781127929999968],[45.91199874900019,10.821513176000167],[45.87855148400007,10.835797310000032],[45.8405075070001,10.845420837],[45.81021188100004,10.867315496000174],[45.78027619700009,10.860718063000093],[45.755676270000095,10.830322266000167],[45.715515137000125,10.817077637000068],[45.68151855500008,10.792480469000054],[45.61813354500009,10.76544952400019],[45.597213746000136,10.764932633000171],[45.57196807800011,10.726197242000183],[45.533027090000076,10.708440479000103],[45.514282227000194,10.691284180000139],[45.48006439200003,10.683760642999971],[45.460693359000174,10.663879395000095],[45.32457720500014,10.660148494000055],[45.2332534790001,10.561992645000032],[45.12944030800003,10.51558208500012],[45.08807373000019,10.508483887000068],[45.04786682200006,10.475002289000031],[45.00518035900018,10.45777511600005],[44.99572753899997,10.433471680000025],[44.94348907500017,10.410817145000067],[44.8806266790001,10.406343460000016],[44.82748413100006,10.41764736100015],[44.7258911130001,10.417480469000054],[44.65870285000017,10.401462555000023],[44.61572265600006,10.382080078000115],[44.56458282500006,10.379600525000058],[44.48155593900009,10.39904499100004],[44.44769287100013,10.400878906000173],[44.41039657599998,10.391789437000114],[44.366558075,10.401334762000033],[44.28818130500002,10.431380272000183],[44.23441696100008,10.47502040900008],[44.201683045000095,10.507679939000184],[44.148620606,10.547588348000033],[44.11751174900013,10.558027268000103],[44.081886292000036,10.584925651000162],[44.06444168100006,10.608724594000137],[43.995029449000185,10.662080765000155],[43.95672607400002,10.681274414000086],[43.857078553000065,10.767384528999969],[43.78913497899998,10.835435868000161],[43.7302474980001,10.902509689000055],[43.69219970800003,10.940807342000085],[43.64702224800004,11.006999968],[43.625671387000125,11.044921875],[43.598594666000054,11.08231353800005],[43.565044403000115,11.147130012000162],[43.55596160900018,11.17889499600011],[43.51611328100017,11.199707031000173],[43.49606704700017,11.243608475000144],[43.493400573000145,11.290221214000155],[43.479492188000165,11.329101562000119],[43.48369598400018,11.349330902000077],[43.459716797000056,11.351318359000118],[43.43178176900011,11.367529869000123],[43.427566529000046,11.37893390700009],[43.39095306400009,11.379751205000048],[43.35428619400011,11.413670539000066],[43.33115386900005,11.426269532000049],[43.31511306800007,11.465003967000143],[43.287467957,11.47083282400007],[43.261291504000155,11.46209716800007],[43.06097935500014,11.144800867000072],[42.9680786130001,10.997497559000067],[42.910095215000126,10.913879395000038],[42.7665300000001,10.72197000000017],[42.72290039100017,10.65148925799997],[42.69296,10.62520000000012],[42.68328857400013,10.592529297000112],[42.70405,10.53896],[42.74670410200014,10.512329101999967],[42.76312255900018,10.45672607400013],[42.79187011700003,10.404113770000095],[42.804870605000076,10.351928711000028],[42.83270263700007,10.277893066000104],[42.85833000000014,10.23407],[42.881286621000186,10.207092285000044],[42.963242535,10.132129634000023],[43.01068115200019,10.09149169900013],[43.01751709000018,10.080688476999967],[43.08587646500007,9.908874512000125],[43.11547851600005,9.888916016000053],[43.13813000000016,9.88630000000012],[43.149902344000054,9.899475098000096],[43.256896973000096,9.842712402000018],[43.29931640600006,9.611083984000118],[43.34069824200009,9.600280762000125],[43.39831543000014,9.552917480000076],[43.41371,9.512680000000103],[43.44552,9.444889999000054],[43.49151611299999,9.401489258000026],[43.53491210900006,9.381103516000167],[43.60168457000009,9.359130859000118],[43.64669,9.35833],[43.87188720700016,9.130126953000115],[43.897277831999986,9.100524902000188],[43.98571777300015,9.013488770000151],[44.005920410000044,8.996704102000137],[44.12214998500019,8.957739442000104],[44.324058157000195,8.892905478000102],[44.690954211000076,8.771959543000037],[44.8689401740001,8.710030085000028],[45.23901321100004,8.586702134],[45.25769043000008,8.58227539100011],[45.481689453000115,8.508117676000097],[45.61169433600014,8.467895508000083],[45.7656860350001,8.415283203000172],[45.830357105000076,8.3948588290001],[46.11389160200014,8.29992675799997],[46.32989502000004,8.229675293000014],[46.60121345500005,8.136647776000132],[47.01221731400017,8.000122070000145],[47.30674363600008,8.000218763000078],[47.577760677000185,8.000122070000145],[47.92061584600003,8.0007064670001],[47.986328125000114,8.000122070000145],[47.560173798000164,7.56300949000007],[47.54235917300008,7.548181487000079],[47.35930475300006,7.361427712000079],[47.14701443500002,7.144545966000123],[46.89503002000009,6.886717846000124],[46.545132065000075,6.528020972999968],[46.31010994100018,6.286657151000156],[45.86558273200012,5.829248234000033],[45.48879435800012,5.440673759000163],[45.18771337200019,5.129640441000106],[44.98168945300006,4.917297362999989],[44.5921196430001,4.934772617000135],[44.015140000000144,4.960440000000119],[43.81386,4.909970000000101],[43.65906,4.868029999000157],[43.54351806600005,4.831298828000115],[43.43492000000015,4.79468],[43.324320000000114,4.74144],[43.235290527000075,4.696289062000119],[43.12122046500019,4.630472858000076],[43.08014,4.60268],[43.044311522999976,4.572082519999981],[43.02612304700017,4.542297363000159],[43.00732421900017,4.467712402000132],[42.96929931600016,4.403320312000119],[42.925720215000126,4.348083496000015],[42.89807128900003,4.318481445000089],[42.849121094000054,4.279479980000076],[42.81732177700019,4.264892578000172],[42.70991,4.261760000000152],[42.671691895000095,4.250488281],[42.58788,4.215410000000134],[42.5266723630001,4.202880859000061],[42.475530000000106,4.20273],[42.34577593100005,4.187626052000041],[42.19674000000015,4.17894],[42.08767,4.179370000000119],[42.05114,4.15152],[42.00000000000017,4.093370000000164],[41.979095613000084,4.095186037000076],[41.946289062000176,4.055725098000096],[41.94346,4.01666],[41.91011899900019,3.982319000000132],[41.67094590200014,3.639948838000066],[41.33331298800016,3.156494141000167],[41.134977495000044,2.959852689000172],[40.995727539000086,2.82171630900018],[40.99543031500019,2.64431574800011],[40.994875075000095,2.311706517000175],[40.99548882400012,1.747618198999987],[40.995727539000086,1.574130936000074],[40.995727539000086,1.232748162000178],[40.995727539000086,1.001959452999984],[40.99587525900006,0.562294829000166],[40.99573283700016,0.132714202999978],[40.995727539000086,-0.199013862999948],[40.995727539000086,-0.8331909179999],[41.28073529100004,-1.218023254999878],[41.396710810000116,-1.374619450999944],[41.564514160000044,-1.601196288999972],[41.5645329350001,-1.664897400999905],[41.58673095700004,-1.638610839999899],[41.619182587000125,-1.585037946999819],[41.63145065300017,-1.578010082999924],[41.697296142000084,-1.47452986299993],[41.750209808000136,-1.380848049999884],[41.77528381400003,-1.354139923999924],[41.83471679700011,-1.253723144999981],[41.843620300000055,-1.23109900999998],[41.83944320600011,-1.204708098999959],[41.875302791000195,-1.21946470599994],[41.90831375100004,-1.192695975999925],[41.893274639000026,-1.175142648999952],[41.90325927700013,-1.149304985999947],[41.926780701000155,-1.12790095899993],[41.94148635800019,-1.094640969999887],[41.959941864000086,-1.069844006999972],[41.96222686800013,-1.049821018999978],[41.977722168000014,-1.027587890999939],[41.98290063200005,-1.005984978999948],[42.025054932000046,-0.96937507399997],[42.037193298000034,-0.931780039999978],[42.07159157800004,-0.900413302999937],[42.08929061900017,-0.853294074999951],[42.07264302400017,-0.842975608999836],[42.05476760800019,-0.849999964999881],[42.04058456400014,-0.827866076999953],[42.038242340000124,-0.802614032999941],[42.007743836000145,-0.811682938999979],[41.98219680700015,-0.794270038999912],[41.988586425,-0.732845961999942],[42.00231933600003,-0.737792968999884],[41.992309570000145,-0.780883788999915],[42.0046997070001,-0.797607421999942],[42.04885864300019,-0.792155980999894],[42.04852294900013,-0.826904296999942],[42.06732177700019,-0.835388183999896],[42.11352539100017,-0.834411620999902],[42.137329102000194,-0.818298339999956],[42.1479964720001,-0.822887614999956],[42.213783264000085,-0.755845069999964],[42.23733139000012,-0.718583941999896],[42.31384625900017,-0.631113430999903],[42.3242797850001,-0.608886718999827],[42.368028571000025,-0.556062222999913],[42.39130922600009,-0.537562080999976],[42.41358947700019,-0.502672016999952],[42.45892334000007,-0.455505370999902],[42.47232818600003,-0.450765043999979],[42.47888183600014,-0.426086425999927],[42.52252197300004,-0.375183104999905],[42.55151367200011,-0.369812011999954],[42.571472168000184,-0.342712401999904],[42.57952880900007,-0.312011718999941],[42.61547851600011,-0.266296386999898],[42.66070556600016,-0.22882080099987],[42.78544576900015,-0.106630901999949],[42.80504303000009,-0.091853354999955],[42.89611816399997,1.71e-13],[42.971679687000176,0.085693359000061],[42.99323602800001,0.10606698700002],[43.20788574200003,0.348327637000182],[43.293502808000085,0.434894055000086],[43.37652587900004,0.533325195000032],[43.43389892600004,0.58807373000019],[43.48608398400006,0.643920898000147],[43.588317871000186,0.733886719000054],[43.655258178000054,0.798888922000174],[43.746025085000156,0.865875959],[43.78192138700018,0.908691406000059],[43.81090241600009,0.926874925000106],[43.846538544000055,0.960081995],[43.87109375000017,0.973693848000153],[43.92468261700003,1.013122559000124],[43.960613250000165,1.048689961999969],[44.00488281300011,1.080322266000167],[44.02191162100007,1.084899902000188],[44.051074981000056,1.126915097000108],[44.10968017600004,1.172485352000024],[44.13272476200018,1.1776889570001],[44.13568115200019,1.201721191000047],[44.16795730500007,1.233924985000101],[44.20611572300004,1.263122559000067],[44.228088379000155,1.293518066000104],[44.29211425800014,1.34790039100011],[44.31848144500009,1.373718262000182],[44.418701172000056,1.449279785000158],[44.513671875000114,1.524475098000096],[44.534484863000046,1.543273926000097],[44.61071777300009,1.598327637000068],[44.6331176760001,1.611328125000171],[44.66308593800005,1.640319824000073],[44.69549560500013,1.655517578000058],[44.72711181600016,1.677307129000042],[44.76470947300015,1.711486816],[44.77331543000014,1.713073730000019],[44.89172363300008,1.789489746000129],[45.01831054700017,1.861511230000076],[45.044494628999985,1.883911133000083],[45.077880859000174,1.89929199200003],[45.12829589800003,1.930908203],[45.180908203000115,1.948303223000096],[45.19049072300004,1.95727539100011],[45.22888183600014,1.967285156000116],[45.23571777300003,1.976501465000183],[45.285095215000126,2.003479004000042],[45.33579,2.022350000000188],[45.39159000000018,2.053540000000169],[45.44628906300011,2.090270996000129],[45.50091552700019,2.118286133000083],[45.55627441400014,2.155273438],[45.637329102000194,2.203918457000157],[45.67169189500004,2.220275879000155],[45.73449707000009,2.260681152000075],[45.74468994100016,2.263488770000038],[45.846923828000115,2.325500488000102],[45.87310791000016,2.335876465000183],[45.93469238300008,2.375488281000116],[45.98828125000017,2.417480469],[46.02429199200003,2.44171142600004],[46.04408654000008,2.466487500000085],[46.101717823000115,2.513677397000095],[46.14129638700018,2.566711426000097],[46.167297364000035,2.586122989000103],[46.19124221800007,2.6215200420001],[46.22827148400006,2.661926270000038],[46.28289794900019,2.699707031000116],[46.297485352000194,2.715698242000087],[46.301433564000035,2.738842010000099],[46.33055877600009,2.758177995000096],[46.345275879000155,2.786682129000098],[46.405440936000105,2.828707574000134],[46.44651794500004,2.87415409100015],[46.575683594000054,2.971923828],[46.7554229480001,3.15324896400017],[46.83841755700013,3.241686194000124],[46.87207031200006,3.293273926000154],[46.911369323000145,3.339317084000186],[47.004253387000176,3.439870119000147],[47.07488502900003,3.505823023000119],[47.129146478000166,3.564786389],[47.20568847700014,3.658081055000082],[47.28747558600014,3.741516113000102],[47.377929688000165,3.826904297000056],[47.42851257400014,3.869499921000113],[47.60706421300006,4.075452766000069],[47.69065856999998,4.168087006],[47.75100708100018,4.226005078000128],[47.81988525400004,4.314697266000053],[47.86010742200017,4.362670898000147],[47.939418792000026,4.43888902700013],[47.968505859,4.475708008000026],[48.01109956600004,4.544936771000039],[48.0191040040001,4.56390380900018],[48.05847168000008,4.629516602000024],[48.08630371100014,4.667480469000111],[48.16782773800003,4.820187501000078],[48.19736099300013,4.883577824000099],[48.296584501000154,5.03017075200006],[48.5368458210001,5.343267827000091],[48.630436736000036,5.465231038000127],[48.68540110300012,5.554034598000044],[48.72607421900011,5.623901366999974],[48.87484901800008,5.856405789000064],[48.96545651700012,6.008832238000025],[48.9871215820001,6.047912598000039],[49.03418464900005,6.148562175],[49.06180191100003,6.213002205000066],[49.08367919900002,6.282470703000172],[49.07916259800015,6.32274293800009],[49.08524704000018,6.391273974000114],[49.113258361000135,6.487260819000085],[49.14419555600006,6.551075935000142],[49.14641952500017,6.566256046000149],[49.17349624600007,6.621315955999989],[49.2070922850001,6.703491211000141],[49.21112060500013,6.733703613000046],[49.28569030700004,6.855549812],[49.312316895000095,6.90789794900013],[49.361206054000036,6.980198859999973],[49.39744567800017,7.049516201000131],[49.42633056600005,7.081481934000067],[49.475280762000125,7.159912109000118],[49.57507324200009,7.293884277000188],[49.60388183600003,7.330078125000114],[49.67889404300007,7.441101074000017],[49.75942230200019,7.595613956000022],[49.78027343700012,7.670104980000019],[49.82378006000016,7.725358009000161],[49.836273193000125,7.76512193700006],[49.809574127000076,7.818270206000136],[49.821861267000145,7.907835007000017],[49.83532714800009,7.934875488000159],[49.89208984400017,8.000122070000145],[49.984397889000036,8.09584236100011],[50.01812744100016,8.116699219000054],[50.062068939000085,8.136512756000172],[50.12921524000012,8.198525429000028],[50.1461601260001,8.256526947000054],[50.147144317000084,8.283597946000043],[50.15687942500017,8.30995941100008],[50.18345738000016,8.332640673000014],[50.19128418000008,8.365722656000116],[50.22387695300006,8.405090332000157],[50.244567871000186,8.446249008000166],[50.306091309000124,8.506530762000068],[50.33201980600006,8.55086040499998],[50.325683594,8.599914551000154],[50.33853912400019,8.650218010000174],[50.37951660200014,8.696289062000062],[50.38775634700005,8.748296738000136],[50.404710271000056,8.780854459000068],[50.407852173000094,8.826045990000068],[50.417407990000186,8.85310077600019],[50.44339752200011,8.893183708000038],[50.502502441000104,8.949523926000154],[50.57476425200008,9.007244109999988],[50.58639526400003,9.027631759000144],[50.621471788000065,9.05149068600008],[50.64091267900005,9.077064466000081],[50.65122604300018,9.11897277800017],[50.64566421500007,9.172498702999974],[50.65504074000006,9.203458786000056],[50.70532226600017,9.268127441000104],[50.738281250000114,9.28771972700008],[50.76348876999998,9.318298340000183],[50.8101196290001,9.384704590000013],[50.846561432000044,9.465747832000034],[50.806003571000076,9.501549721000117],[50.798641205000195,9.560616493000055],[50.80700683600003,9.617081643000176],[50.81750488300008,9.636108398000147],[50.828372955000134,9.680146217000072],[50.834888458000194,9.734786987000064],[50.8321685790001,9.747663498000122],[50.85144805900012,9.854622840000161],[50.868250499,9.876218218000133],[50.886291504000155,9.964721680000082],[50.89825052900011,9.992020920000016],[50.89586639400011,10.024868965000167],[50.88207244900002,10.095707894000043],[50.89386749200014,10.1349382410001],[50.902267457000164,10.19095993100018],[50.89401245100015,10.256491661000098],[50.90008544900007,10.310729980000133],[51.015930176000154,10.382324219000168],[51.04711914100017,10.395874023000033],[51.1097717290001,10.40534305600005],[51.161682129000155,10.417724609000174],[51.212097168000184,10.423706054999968],[51.24487304700017,10.421875000000114],[51.26849365200013,10.402893066],[51.26847157500015,10.376306970000087],[51.28925704900007,10.368365288000064],[51.34069824200009,10.374328613000102],[51.36029052700019,10.368896484000174],[51.39274978600008,10.39454841600002],[51.41303253200016,10.43967819200003],[51.38795852600015,10.474784851000152],[51.351298401000065,10.480094136000048],[51.31848525999999,10.47066307100016],[51.29136657700019,10.479347229000155],[51.23669433599997,10.506586075000087],[51.21847534200015,10.523485184000037],[51.20050048900015,10.509120942000095],[51.192321777000075,10.485717773000033],[51.212097168000184,10.462707520000151],[51.22835159300007,10.430808066999987],[51.18331909200009,10.433390617000157],[51.120132446000184,10.430100441000093],[51.063720703000115,10.418701172000056],[51.04265976000005,10.404356957000061],[51.026638031000175,10.446272850000128],[51.03991699200009,10.456909180000025],[51.08454895000011,10.461565018000101],[51.108196259000124,10.49428844400012],[51.10526657200012,10.549921036000114],[51.123901366999974,10.559692383000083],[51.165767669000104,10.566330909000158],[51.16770935000011,10.579648018000057],[51.15087890600006,10.614318848000096],[51.14540863100012,10.659303665000039],[51.13131332400013,10.672948836999979],[51.127422332000094,10.722845076999988],[51.12988281200012,10.75408935500002],[51.12268066400014,10.877075195000089],[51.11660003600008,10.939878464000117],[51.12419509800003,11.005338669000139],[51.132305146000135,11.038846969000076],[51.15801239000018,11.09569454200016],[51.17849895200004,11.13149090700017],[51.15789794900019,11.146484375000114],[51.11108398400006,11.155883789000143],[51.08636856000004,11.18691730400002],[51.075843811000084,11.219847679000054],[51.07398986800007,11.262383461000184],[51.083976745000086,11.338868141000091],[51.120616913,11.428527832000043],[51.12545394900019,11.458151817000044],[51.11982345600018,11.491745949000176],[51.173889160000044,11.576293945000032],[51.187072754000155,11.587524414000143],[51.22543334900001,11.641888618000166],[51.24065017700019,11.650526047000085],[51.25422668400006,11.694573402000117],[51.24454116800018,11.712335587000098],[51.255626678000056,11.731113434000122],[51.25671386700003,11.756713867000087],[51.28461074800015,11.811609268000097],[51.27313613900009,11.841797829000086],[51.23224639900013,11.83539485900019],[51.18215179500004,11.850651741000092],[51.14027070300011,11.87389454100014],[51.100093842000035,11.869997978000072],[51.0543518070001,11.872562409000068],[50.955860138,11.921843528000068],[50.90411377000004,11.939816475000043],[50.858600617000036,11.943726539000124],[50.83134460500014,11.957425118000117],[50.79877090500008,11.983558655000138]]]},"properties":{"iso2":"SO","iso3":"SOM","adm0_name":"Somalia","adm0_name1":null,"adm0_name2":null,"adm0_name3":null,"adm0_pcode":"SO","valid_on":"2025-01-08","valid_to":null,"version":"v03","area_sqkm":633003.10531048,"lang":"en","lang1":null,"lang2":null,"lang3":null,"center_lat":5.18063572,"center_lon":46.82414148}}
]}